ONEWEB-0387             
1 49313U 21090AL  22275.25001157  .00004967  00000+0  12178-1 0  9996
2 49313  87.9245 183.8382 0001885  83.4735  53.2534 13.20766742 52403
ONEWEB-0388             
1 49314U 21090AM  22275.58334491 -.00005688  00000+0 -14250-1 0  9999
2 49314  87.9238 213.9726 0002014  81.4796  89.1338 13.19724201 49175
ONEWEB-0389             
1 50469U 21132A   22275.25001157 -.00008222  00000+0 -21231-1 0  9997
2 50469  87.9020 274.8879 0002317 104.5299 237.4459 13.17642785 41070
ONEWEB-0390             
1 50470U 21132B   22275.25001157 -.00008412  00000+0 -21718-1 0  9990
2 50470  87.9022 274.8883 0002109 105.8010 228.6558 13.17647815 41074
ONEWEB-0391             
1 50471U 21132C   22275.25001157 -.00008567  00000+0 -22119-1 0  9998
2 50471  87.9022 274.8599 0002167 100.0717 227.0289 13.17645604 41072
ONEWEB-0392             
1 50472U 21132D   22275.25001157 -.00008131  00000+0 -20991-1 0  9992
2 50472  87.9031 274.8895 0001810  99.0136  22.1917 13.17654942 41109
ONEWEB-0393             
1 50473U 21132E   22275.25001157 -.00007560  00000+0 -19521-1 0  9995
2 50473  87.9018 274.8842 0001604 101.5459 346.8186 13.17645437 41096
ONEWEB-0394             
1 50474U 21132F   22275.25001157  .00022802  00000+0  21956-2 0  9996
2 50474  87.2211 257.6530 0004749  75.8139 189.3529 14.92846290 42961
ONEWEB-0395             
1 50475U 21132G   22275.58334491 -.00014944  00000+0 -42265-1 0  9998
2 50475  87.8785 290.1368 0001917 103.4681 247.0703 13.11423424 39578
ONEWEB-0396             
1 50476U 21132H   22275.25001157  .00026600  00000+0  25613-2 0  9992
2 50476  87.2246 257.7635 0002246  81.2677 306.2817 14.92839672 42962
ONEWEB-0397             
1 50477U 21132J   22275.58334491 -.00058682  00000+0 -57239-2 0  9995
2 50477  87.2252 257.6794 0005285  48.8811 157.5204 14.92865468 43005
ONEWEB-0398             
1 50478U 21132K   22275.58334491 -.00018644  00000+0 -52732-1 0  9992
2 50478  87.8806 290.1243 0001842 111.3620  32.8489 13.11434907 39473
ONEWEB-0399             
1 50479U 21132L   22275.58334491 -.00018941  00000+0 -53576-1 0  9990
2 50479  87.8798 290.1383 0002108  80.0665 127.6945 13.11431409 39469
ONEWEB-0400             
1 50480U 21132M   22275.25001157  .00024828  00000+0  23896-2 0  9998
2 50480  87.2199 257.5864 0003020  57.3096 107.6605 14.92863035 42986
ONEWEB-0401             
1 50481U 21132N   22275.25001157  .00026052  00000+0  25099-2 0  9997
2 50481  87.2226 257.6905 0004366  75.9056 287.8692 14.92814529 42971
ONEWEB-0402             
1 50482U 21132P   22275.25001157  .00024403  00000+0  23481-2 0  9999
2 50482  87.2228 257.7038 0004380  70.1610  98.1782 14.92870993 42971
ONEWEB-0403             
1 50483U 21132Q   22275.25001157  .00023745  00000+0  22877-2 0  9996
2 50483  87.2201 257.6151 0004222  89.5545 127.5495 14.92823191 42970
ONEWEB-0404             
1 50484U 21132R   22275.58334491 -.00015350  00000+0 -43413-1 0  9996
2 50484  87.8782 290.0992 0002737  98.5627 230.9008 13.11423609 39554
ONEWEB-0405             
1 50485U 21132S   22275.25001157  .00019510  00000+0  18788-2 0  9999
2 50485  87.2971 260.0243 0001180  50.4203  96.3993 14.92861286 42977
ONEWEB-0406             
1 50486U 21132T   22275.25001157  .00026990  00000+0  25974-2 0  9995
2 50486  87.2251 257.7685 0003332  15.8650  18.0224 14.92858210 42975
ONEWEB-0407             
1 50487U 21132U   22275.25001157  .00025002  00000+0  24077-2 0  9992
2 50487  87.2166 257.4837 0001949  13.1142 288.6548 14.92841575 42987
ONEWEB-0409             
1 50488U 21132V   22275.58334491 -.00016108  00000+0 -45562-1 0  9999
2 50488  87.8699 290.0950 0002400 104.0930 198.9548 13.11420860 39453
ONEWEB-0412             
1 50489U 21132W   22275.25001157  .00024110  00000+0  23196-2 0  9994
2 50489  87.2212 257.6575 0003207  58.0083 121.2598 14.92880168 43038
ONEWEB-0413             
1 50490U 21132X   22275.25001157  .00024085  00000+0  23189-2 0  9999
2 50490  87.2155 257.4270 0004591  73.7389 188.8598 14.92847073 42997
ONEWEB-0414             
1 50491U 21132Y   22275.25001157  .00024612  00000+0  23689-2 0  9991
2 50491  87.2196 257.5910 0002440  20.8124 272.9033 14.92862999 42988
ONEWEB-0417             
1 50492U 21132Z   22275.25001157  .00026209  00000+0  25237-2 0  9997
2 50492  87.2228 257.7038 0002875   5.8260 335.9701 14.92838917 42978
ONEWEB-0418             
1 50493U 21132AA  22275.25001157  .00023502  00000+0  22628-2 0  9992
2 50493  87.2263 257.8333 0004487  55.8455 208.3264 14.92849417 42962
ONEWEB-0419             
1 50494U 21132AB  22275.25001157  .00028862  00000+0  27769-2 0  9998
2 50494  87.2148 257.4128 0002046  18.6066  72.4055 14.92861090 42988
ONEWEB-0420             
1 50495U 21132AC  22275.25001157  .00029207  00000+0  28088-2 0  9998
2 50495  87.2092 257.2092 0005021  68.4781  23.3295 14.92870453 43006
ONEWEB-0421             
1 50496U 21132AD  22275.25001157  .00025429  00000+0  24513-2 0  9990
2 50496  87.2124 257.3238 0005082  84.2703 245.6127 14.92790646 43001
ONEWEB-0424             
1 50497U 21132AE  22275.58334491 -.00108287  00000+0 -10617-1 0  9992
2 50497  87.2293 257.8075 0003654  51.5271 231.3536 14.92939923 43024
ONEWEB-0426             
1 50498U 21132AF  22275.25001157  .00023027  00000+0  22186-2 0  9998
2 50498  87.2165 257.4853 0002401  83.6421 134.2758 14.92828659 42978
ONEWEB-0427             
1 50499U 21132AG  22275.25001157  .00027542  00000+0  26480-2 0  9996
2 50499  87.2101 257.2478 0001373  86.5717  35.7786 14.92895643 43005
ONEWEB-0429             
1 50500U 21132AH  22275.25001157  .00023190  00000+0  22342-2 0  9997
2 50500  87.2135 257.3626 0004534  70.7253 150.5568 14.92823852 42986
ONEWEB-0430             
1 50501U 21132AJ  22275.25001157 -.00038847  00000+0 -37806-2 0  9996
2 50501  87.2268 257.8556 0002613  32.3191 124.3607 14.92861134 42957
ONEWEB-0432             
1 50502U 21132AK  22275.58334491 -.00057513  00000+0 -56018-2 0  9990
2 50502  87.2122 257.2009 0005908  68.6257  10.3669 14.92912977 43055
ONEWEB-0440             
1 50503U 21132AL  22275.25001157  .00024818  00000+0  23874-2 0  9999
2 50503  87.2155 257.4346 0004292  71.7873 103.0443 14.92879755 42989
ONEWEB-0450             
1 50504U 21132AM  22275.25001157  .00025486  00000+0  24552-2 0  9996
2 50504  87.2250 257.7785 0003206  51.4666 301.2853 14.92822805 42975
ONEWEB-0410             
1 51622U 22012A   22275.25001157 -.01652114  00000+0 -21973+0 0  9994
2 51622  87.2327 278.0710 0003550  60.4001  32.5708 14.83597980 36239
ONEWEB-0411             
1 51623U 22012B   22275.58334491  .00006123  00000+0  17492-1 0  9994
2 51623  87.8746 305.4114 0002158 110.6833 278.2670 13.10371583 33296
ONEWEB-0415             
1 51624U 22012C   22275.58334491  .00006079  00000+0  17367-1 0  9996
2 51624  87.8732 305.3990 0001599 114.5213 289.1198 13.10373753 33293
ONEWEB-0416             
1 51625U 22012D   22275.58334491  .00006436  00000+0  18386-1 0  9996
2 51625  87.8735 305.3849 0001632  92.1440 259.9755 13.10378416 33342
ONEWEB-0422             
1 51626U 22012E   22275.58334491 -.00038727  00000+0 -40566-2 0  9993
2 51626  87.2522 279.4924 0003019 136.3395 176.0806 14.89916250 36280
ONEWEB-0423             
1 51627U 22012F   22275.58334491 -.01708041  00000+0 -22506+0 0  9999
2 51627  87.2352 277.9929 0002322  74.0006 359.7890 14.83533561 36280
ONEWEB-0425             
1 51628U 22012G   22275.58334491  .00007306  00000+0  20875-1 0  9992
2 51628  87.8733 305.3907 0002346  83.7941 224.2808 13.10381328 33332
ONEWEB-0428             
1 51629U 22012H   22275.58334491  .00006067  00000+0  17333-1 0  9991
2 51629  87.8715 305.3861 0001365  76.2201 320.0447 13.10375792 33295
ONEWEB-0431             
1 51630U 22012J   22275.58334491  .00008171  00000+0  23349-1 0  9995
2 51630  87.8781 305.3603 0001050 116.6164 147.2884 13.10378520 33355
ONEWEB-0434             
1 51631U 22012K   22275.58334491  .00007609  00000+0  21741-1 0  9995
2 51631  87.8698 305.3733 0001332  84.2957 208.9223 13.10381704 33338
ONEWEB-0435             
1 51632U 22012L   22275.58334491  .00008351  00000+0  23863-1 0  9998
2 51632  87.8792 305.3372 0001229  71.2266 177.9145 13.10376687 33317
ONEWEB-0436             
1 51633U 22012M   22275.25001157 -.01637079  00000+0 -22736+0 0  9997
2 51633  87.2404 278.0087 0004514  75.9588 132.9312 14.81766235 36242
ONEWEB-0438             
1 51634U 22012N   22275.58334491  .00006765  00000+0  19328-1 0  9998
2 51634  87.8796 305.3373 0002053  89.3130 240.7168 13.10377607 33362
ONEWEB-0439             
1 51635U 22012P   22275.58334491  .00007117  00000+0  20335-1 0  9991
2 51635  87.8775 305.3708 0001715  93.5326 221.7951 13.10377716 33337
ONEWEB-0442             
1 51636U 22012Q   22275.25001157 -.01688693  00000+0 -24485+0 0  9991
2 51636  87.2442 277.9497 0002101 116.7634 121.7185 14.79516784 36250
ONEWEB-0443             
1 51637U 22012R   22275.58334491 -.01735292  00000+0 -24326+0 0  9990
2 51637  87.2375 277.8939 0003257  37.3486 144.8218 14.81012655 36290
ONEWEB-0444             
1 51638U 22012S   22275.58334491  .00006321  00000+0  18058-1 0  9999
2 51638  87.8701 305.3733 0001661  88.0646 271.4969 13.10375069 33353
ONEWEB-0445             
1 51639U 22012T   22275.58334491  .00002734  00000+0  77913-2 0  9990
2 51639  87.8777 305.3811 0002246 109.1536 147.5229 13.10381394 33357
ONEWEB-0446             
1 51640U 22012U   22275.58334491  .00006256  00000+0  17872-1 0  9992
2 51640  87.8745 305.3920 0001691 104.8339 262.0668 13.10376142 33356
ONEWEB-0448             
1 51641U 22012V   22275.58334491  .00006558  00000+0  18738-1 0  9990
2 51641  87.8745 305.3888 0001558  87.6247 257.1443 13.10370975 33318
ONEWEB-0449             
1 51642U 22012W   22275.58334491  .00006962  00000+0  19893-1 0  9993
2 51642  87.8693 305.3752 0002288  92.7186 230.1054 13.10375596 33325
